DELTA 2 R/B(1)          
1 20453U 90008B   26059.58054871  .00068399  00000+0  83950-3 0  9993
2 20453  35.6028 234.5751 0087339 174.1685 186.0085 15.54561026924715
COSMOS 2058             
1 20465U 90010A   26059.97448741  .00004469  00000+0  26408-3 0  9998
2 20465  82.4662  56.0142 0009985  12.3928 347.7546 15.11227833940924
SL-14 R/B               
1 20466U 90010B   26059.64903396  .00000436  00000+0  49930-4 0  9991
2 20466  82.4994 275.8830 0019124 333.8258  26.1988 14.83559855927148
SL-14 R/B               
1 20511U 90018B   26059.92821737  .00000580  00000+0  69708-4 0  9994
2 20511  82.5189 231.2798 0017533 118.6014 241.6967 14.82133343921285
HST                     
1 20580U 90037B   26059.48100997  .00008110  00000+0  26924-3 0  9999
2 20580  28.4698 102.8114 0001522  31.9535 328.1152 15.29313005771902
SL-16 R/B               
1 20625U 90046B   26059.93141526 -.00000128  00000+0 -41560-4 0  9999
2 20625  71.0008 316.3085 0016032 311.4404  48.5340 14.15015156847156
COSMOS 2084             
1 20663U 90055A   26059.95506774  .00003179  00000+0  23264-3 0  9990
2 20663  62.7916   5.3658 0018374 187.9564 172.1248 15.05585440935009
SL-6 R/B(2)             
1 20666U 90055D   26059.92580206  .00002113  00000+0  16779-3 0  9992
2 20666  62.7824 283.6541 0023386 344.8206  15.2189 15.03545518936875
SL-8 R/B                
1 20775U 90078B   26059.97353900  .00016405  00000+0  48169-3 0  9999
2 20775  82.8997 259.1495 0364306  43.2578 319.6638 14.88725539808006
SL-8 R/B                
1 21088U 91006B   26059.84647788  .00000039  00000+0  23689-4 0  9992
2 21088  82.9462 176.6196 0023516  62.1478  54.3828 13.77493096762850
OKEAN-3                 
1 21397U 91039A   26059.83488359  .00003363  00000+0  23638-3 0  9993
2 21397  82.5200 345.4195 0014506   9.1393 351.0094 15.04729733863700
COSMOS 2151             
1 21422U 91042A   26059.94503575  .00001788  00000+0  14120-3 0  9991
2 21422  82.4933  92.1136 0014150  89.7433 270.5413 15.00064399861889
