CCSDS_OMM_VERS = 2.0
CREATION_DATE  = 
ORIGINATOR     = 

OBJECT_NAME    = DELTA 2 R/B(1)
OBJECT_ID      = 1990-008B
CENTER_NAME    = EARTH
REF_FRAME      = TEME
TIME_SYSTEM    = UTC
MEAN_ELEMENT_THEORY = SGP/SGP4

EPOCH          = 2026-02-28T13:55:59.408544
MEAN_MOTION    = 15.54561026
ECCENTRICITY   = .00873392
INCLINATION    = 35.6028
RA_OF_ASC_NODE = 234.5751
ARG_OF_PERICENTER = 174.1685
MEAN_ANOMALY   = 186.0085

EPHEMERIS_TYPE = 0
CLASSIFICATION_TYPE = U
NORAD_CAT_ID   = 20453
ELEMENT_SET_NO = 999
REV_AT_EPOCH   = 92471
BSTAR          = .83949751E-3
MEAN_MOTION_DOT = .68399E-3
MEAN_MOTION_DDOT = 0

CCSDS_OMM_VERS = 2.0
CREATION_DATE  = 
ORIGINATOR     = 

OBJECT_NAME    = COSMOS 2058
OBJECT_ID      = 1990-010A
CENTER_NAME    = EARTH
REF_FRAME      = TEME
TIME_SYSTEM    = UTC
MEAN_ELEMENT_THEORY = SGP/SGP4

EPOCH          = 2026-02-28T23:23:15.712224
MEAN_MOTION    = 15.11227833
ECCENTRICITY   = .00099858
INCLINATION    = 82.4662
RA_OF_ASC_NODE = 56.0142
ARG_OF_PERICENTER = 12.3928
MEAN_ANOMALY   = 347.7546

EPHEMERIS_TYPE = 0
CLASSIFICATION_TYPE = U
NORAD_CAT_ID   = 20465
ELEMENT_SET_NO = 999
REV_AT_EPOCH   = 94092
BSTAR          = .26407874E-3
MEAN_MOTION_DOT = .4469E-4
MEAN_MOTION_DDOT = 0

CCSDS_OMM_VERS = 2.0
CREATION_DATE  = 
ORIGINATOR     = 

OBJECT_NAME    = SL-14 R/B
OBJECT_ID      = 1990-010B
CENTER_NAME    = EARTH
REF_FRAME      = TEME
TIME_SYSTEM    = UTC
MEAN_ELEMENT_THEORY = SGP/SGP4

EPOCH          = 2026-02-28T15:34:36.534144
MEAN_MOTION    = 14.83559855
ECCENTRICITY   = .00191247
INCLINATION    = 82.4994
RA_OF_ASC_NODE = 275.8830
ARG_OF_PERICENTER = 333.8258
MEAN_ANOMALY   = 26.1988

EPHEMERIS_TYPE = 0
CLASSIFICATION_TYPE = U
NORAD_CAT_ID   = 20466
ELEMENT_SET_NO = 999
REV_AT_EPOCH   = 92714
BSTAR          = .49930039E-4
MEAN_MOTION_DOT = .436E-5
MEAN_MOTION_DDOT = 0

CCSDS_OMM_VERS = 2.0
CREATION_DATE  = 
ORIGINATOR     = 

OBJECT_NAME    = SL-14 R/B
OBJECT_ID      = 1990-018B
CENTER_NAME    = EARTH
REF_FRAME      = TEME
TIME_SYSTEM    = UTC
MEAN_ELEMENT_THEORY = SGP/SGP4

EPOCH          = 2026-02-28T22:16:37.980768
MEAN_MOTION    = 14.82133343
ECCENTRICITY   = .00175331
INCLINATION    = 82.5189
RA_OF_ASC_NODE = 231.2798
ARG_OF_PERICENTER = 118.6014
MEAN_ANOMALY   = 241.6967

EPHEMERIS_TYPE = 0
CLASSIFICATION_TYPE = U
NORAD_CAT_ID   = 20511
ELEMENT_SET_NO = 999
REV_AT_EPOCH   = 92128
BSTAR          = .69707594E-4
MEAN_MOTION_DOT = .58E-5
MEAN_MOTION_DDOT = 0

CCSDS_OMM_VERS = 2.0
CREATION_DATE  = 
ORIGINATOR     = 

OBJECT_NAME    = HST
OBJECT_ID      = 1990-037B
CENTER_NAME    = EARTH
REF_FRAME      = TEME
TIME_SYSTEM    = UTC
MEAN_ELEMENT_THEORY = SGP/SGP4

EPOCH          = 2026-02-28T11:32:39.261408
MEAN_MOTION    = 15.29313005
ECCENTRICITY   = .00015224
INCLINATION    = 28.4698
RA_OF_ASC_NODE = 102.8114
ARG_OF_PERICENTER = 31.9535
MEAN_ANOMALY   = 328.1152

EPHEMERIS_TYPE = 0
CLASSIFICATION_TYPE = U
NORAD_CAT_ID   = 20580
ELEMENT_SET_NO = 999
REV_AT_EPOCH   = 77190
BSTAR          = .26924059E-3
MEAN_MOTION_DOT = .811E-4
MEAN_MOTION_DDOT = 0

CCSDS_OMM_VERS = 2.0
CREATION_DATE  = 
ORIGINATOR     = 

OBJECT_NAME    = SL-16 R/B
OBJECT_ID      = 1990-046B
CENTER_NAME    = EARTH
REF_FRAME      = TEME
TIME_SYSTEM    = UTC
MEAN_ELEMENT_THEORY = SGP/SGP4

EPOCH          = 2026-02-28T22:21:14.278464
MEAN_MOTION    = 14.15015156
ECCENTRICITY   = .0016032
INCLINATION    = 71.0008
RA_OF_ASC_NODE = 316.3085
ARG_OF_PERICENTER = 311.4404
MEAN_ANOMALY   = 48.5340

EPHEMERIS_TYPE = 0
CLASSIFICATION_TYPE = U
NORAD_CAT_ID   = 20625
ELEMENT_SET_NO = 999
REV_AT_EPOCH   = 84715
BSTAR          = -.41559928E-4
MEAN_MOTION_DOT = -.128E-5
MEAN_MOTION_DDOT = 0

CCSDS_OMM_VERS = 2.0
CREATION_DATE  = 
ORIGINATOR     = 

OBJECT_NAME    = COSMOS 2084
OBJECT_ID      = 1990-055A
CENTER_NAME    = EARTH
REF_FRAME      = TEME
TIME_SYSTEM    = UTC
MEAN_ELEMENT_THEORY = SGP/SGP4

EPOCH          = 2026-02-28T22:55:17.852736
MEAN_MOTION    = 15.05585440
ECCENTRICITY   = .00183749
INCLINATION    = 62.7916
RA_OF_ASC_NODE = 5.3658
ARG_OF_PERICENTER = 187.9564
MEAN_ANOMALY   = 172.1248

EPHEMERIS_TYPE = 0
CLASSIFICATION_TYPE = U
NORAD_CAT_ID   = 20663
ELEMENT_SET_NO = 999
REV_AT_EPOCH   = 93500
BSTAR          = .23264393E-3
MEAN_MOTION_DOT = .3179E-4
MEAN_MOTION_DDOT = 0

CCSDS_OMM_VERS = 2.0
CREATION_DATE  = 
ORIGINATOR     = 

OBJECT_NAME    = SL-6 R/B(2)
OBJECT_ID      = 1990-055D
CENTER_NAME    = EARTH
REF_FRAME      = TEME
TIME_SYSTEM    = UTC
MEAN_ELEMENT_THEORY = SGP/SGP4

EPOCH          = 2026-02-28T22:13:09.297984
MEAN_MOTION    = 15.03545518
ECCENTRICITY   = .00233861
INCLINATION    = 62.7824
RA_OF_ASC_NODE = 283.6541
ARG_OF_PERICENTER = 344.8206
MEAN_ANOMALY   = 15.2189

EPHEMERIS_TYPE = 0
CLASSIFICATION_TYPE = U
NORAD_CAT_ID   = 20666
ELEMENT_SET_NO = 999
REV_AT_EPOCH   = 93687
BSTAR          = .16778605E-3
MEAN_MOTION_DOT = .2113E-4
MEAN_MOTION_DDOT = 0

CCSDS_OMM_VERS = 2.0
CREATION_DATE  = 
ORIGINATOR     = 

OBJECT_NAME    = SL-8 R/B
OBJECT_ID      = 1990-078B
CENTER_NAME    = EARTH
REF_FRAME      = TEME
TIME_SYSTEM    = UTC
MEAN_ELEMENT_THEORY = SGP/SGP4

EPOCH          = 2026-02-28T23:21:53.769600
MEAN_MOTION    = 14.88725539
ECCENTRICITY   = .03643068
INCLINATION    = 82.8997
RA_OF_ASC_NODE = 259.1495
ARG_OF_PERICENTER = 43.2578
MEAN_ANOMALY   = 319.6638

EPHEMERIS_TYPE = 0
CLASSIFICATION_TYPE = U
NORAD_CAT_ID   = 20775
ELEMENT_SET_NO = 999
REV_AT_EPOCH   = 80800
BSTAR          = .48169486E-3
MEAN_MOTION_DOT = .16405E-3
MEAN_MOTION_DDOT = 0

CCSDS_OMM_VERS = 2.0
CREATION_DATE  = 
ORIGINATOR     = 

OBJECT_NAME    = SL-8 R/B
OBJECT_ID      = 1991-006B
CENTER_NAME    = EARTH
REF_FRAME      = TEME
TIME_SYSTEM    = UTC
MEAN_ELEMENT_THEORY = SGP/SGP4

EPOCH          = 2026-02-28T20:18:55.688832
MEAN_MOTION    = 13.77493096
ECCENTRICITY   = .00235169
INCLINATION    = 82.9462
RA_OF_ASC_NODE = 176.6196
ARG_OF_PERICENTER = 62.1478
MEAN_ANOMALY   = 54.3828

EPHEMERIS_TYPE = 0
CLASSIFICATION_TYPE = U
NORAD_CAT_ID   = 21088
ELEMENT_SET_NO = 999
REV_AT_EPOCH   = 76285
BSTAR          = .23689187E-4
MEAN_MOTION_DOT = .39E-6
MEAN_MOTION_DDOT = 0

CCSDS_OMM_VERS = 2.0
CREATION_DATE  = 
ORIGINATOR     = 

OBJECT_NAME    = OKEAN-3
OBJECT_ID      = 1991-039A
CENTER_NAME    = EARTH
REF_FRAME      = TEME
TIME_SYSTEM    = UTC
MEAN_ELEMENT_THEORY = SGP/SGP4

EPOCH          = 2026-02-28T20:02:13.942176
MEAN_MOTION    = 15.04729733
ECCENTRICITY   = .00145064
INCLINATION    = 82.5200
RA_OF_ASC_NODE = 345.4195
ARG_OF_PERICENTER = 9.1393
MEAN_ANOMALY   = 351.0094

EPHEMERIS_TYPE = 0
CLASSIFICATION_TYPE = U
NORAD_CAT_ID   = 21397
ELEMENT_SET_NO = 999
REV_AT_EPOCH   = 86370
BSTAR          = .2363827E-3
MEAN_MOTION_DOT = .3363E-4
MEAN_MOTION_DDOT = 0

CCSDS_OMM_VERS = 2.0
CREATION_DATE  = 
ORIGINATOR     = 

OBJECT_NAME    = COSMOS 2151
OBJECT_ID      = 1991-042A
CENTER_NAME    = EARTH
REF_FRAME      = TEME
TIME_SYSTEM    = UTC
MEAN_ELEMENT_THEORY = SGP/SGP4

EPOCH          = 2026-02-28T22:40:51.088800
MEAN_MOTION    = 15.00064399
ECCENTRICITY   = .00141507
INCLINATION    = 82.4933
RA_OF_ASC_NODE = 92.1136
ARG_OF_PERICENTER = 89.7433
MEAN_ANOMALY   = 270.5413

EPHEMERIS_TYPE = 0
CLASSIFICATION_TYPE = U
NORAD_CAT_ID   = 21422
ELEMENT_SET_NO = 999
REV_AT_EPOCH   = 86188
BSTAR          = .14119774E-3
MEAN_MOTION_DOT = .1788E-4
MEAN_MOTION_DDOT = 0

